{"type": "FeatureCollection", "features": [ {"type": "Feature", "properties": {"norad_id": 47068, "name": "COSMOS 2251 DEB", "group": "cosmos-2251-debris", "lat": -24.832602660059546, "lon": -160.68404743532435, "alt_km": 710.7048042278257, "timestamp": "2025-12-10T21:43:22.489786+00:00", "meta": {"OBJECT_NAME": "COSMOS 2251 DEB", "OBJECT_ID": "1993-036BXY", "EPOCH": "2025-12-10T08:37:23.908800", "MEAN_MOTION": 14.53124588, "ECCENTRICITY": 0.00183871, "INCLINATION": 74.0237, "RA_OF_ASC_NODE": 207.9647, "ARG_OF_PERICENTER": 295.1149, "MEAN_ANOMALY": 64.8105, "EPHEMERIS_TYPE": 0, "CLASSIFICATION_TYPE": "U", "NORAD_CAT_ID": 47068, "ELEMENT_SET_NO": 999, "REV_AT_EPOCH": 61722, "BSTAR": 0.0012343436, "MEAN_MOTION_DOT": 5.094e-05, "MEAN_MOTION_DDOT": 0}, "tle": {"line1": "1 47068U 93036BXY 25344.35930450  .00005094  00000+0  12343-2 0  9995", "line2": "2 47068  74.0237 207.9647 0018387 295.1149  64.8105 14.53124588617226"}}, "geometry": {"type": "Point", "coordinates": [-160.68404743532435, -24.832602660059546]}}, {"type": "Feature", "properties": {"norad_id": 47073, "name": "COSMOS 2251 DEB", "group": "cosmos-2251-debris", "lat": 72.86353140290477, "lon": -42.69493649354619, "alt_km": 968.8282630970452, "timestamp": "2025-12-10T21:43:22.489796+00:00", "meta": {"OBJECT_NAME": "COSMOS 2251 DEB", "OBJECT_ID": "1993-036BYD", "EPOCH": "2025-11-28T23:48:38.837952", "MEAN_MOTION": 14.04684181, "ECCENTRICITY": 0.01626495, "INCLINATION": 74.0833, "RA_OF_ASC_NODE": 225.7586, "ARG_OF_PERICENTER": 267.1836, "MEAN_ANOMALY": 91.0675, "EPHEMERIS_TYPE": 0, "CLASSIFICATION_TYPE": "U", "NORAD_CAT_ID": 47073, "ELEMENT_SET_NO": 999, "REV_AT_EPOCH": 60168, "BSTAR": 0.0003803633, "MEAN_MOTION_DOT": 6.6e-06, "MEAN_MOTION_DDOT": 0}, "tle": {"line1": "1 47073U 93036BYD 25332.99211618  .00000660  00000+0  38036-3 0  9998", "line2": "2 47073  74.0833 225.7586 0162649 267.1836  91.0675 14.04684181601680"}}, "geometry": {"type": "Point", "coordinates": [-42.69493649354619, 72.86353140290477]}}, {"type": "Feature", "properties": {"norad_id": 47074, "name": "COSMOS 2251 DEB", "group": "cosmos-2251-debris", "lat": 45.65028292706561, "lon": -30.968142552878266, "alt_km": 730.0073743299972, "timestamp": "2025-12-10T21:43:22.489806+00:00", "meta": {"OBJECT_NAME": "COSMOS 2251 DEB", "OBJECT_ID": "1993-036BYE", "EPOCH": "2025-12-08T16:49:34.505184", "MEAN_MOTION": 14.3557053, "ECCENTRICITY": 0.01448795, "INCLINATION": 74.0911, "RA_OF_ASC_NODE": 316.0985, "ARG_OF_PERICENTER": 343.8802, "MEAN_ANOMALY": 196.5757, "EPHEMERIS_TYPE": 0, "CLASSIFICATION_TYPE": "U", "NORAD_CAT_ID": 47074, "ELEMENT_SET_NO": 999, "REV_AT_EPOCH": 2624, "BSTAR": 0.0031554894, "MEAN_MOTION_DOT": 0.00010228, "MEAN_MOTION_DDOT": 0}, "tle": {"line1": "1 47074U 93036BYE 25342.70109381  .00010228  00000+0  31555-2 0  9991", "line2": "2 47074  74.0911 316.0985 0144879 343.8802 196.5757 14.35570530 26246"}}, "geometry": {"type": "Point", "coordinates": [-30.968142552878266, 45.65028292706561]}}, {"type": "Feature", "properties": {"norad_id": 47116, "name": "COSMOS 2251 DEB", "group": "cosmos-2251-debris", "lat": -15.456414826293669, "lon": 68.99827802632765, "alt_km": 590.0136758193694, "timestamp": "2025-12-10T21:43:22.489817+00:00", "meta": {"OBJECT_NAME": "COSMOS 2251 DEB", "OBJECT_ID": "1993-036BYJ", "EPOCH": "2025-11-28T02:40:22.126944", "MEAN_MOTION": 14.97052334, "ECCENTRICITY": 0.00224176, "INCLINATION": 74.0247, "RA_OF_ASC_NODE": 270.3586, "ARG_OF_PERICENTER": 5.4926, "MEAN_ANOMALY": 12.2387, "EPHEMERIS_TYPE": 0, "CLASSIFICATION_TYPE": "U", "NORAD_CAT_ID": 47116, "ELEMENT_SET_NO": 999, "REV_AT_EPOCH": 59292, "BSTAR": 0.0024991708, "MEAN_MOTION_DOT": 0.00029033, "MEAN_MOTION_DDOT": 0}, "tle": {"line1": "1 47116U 93036BYJ 25332.11136721  .00029033  00000+0  24992-2 0  9991", "line2": "2 47116  74.0247 270.3586 0022417   5.4926  12.2387 14.97052334592926"}}, "geometry": {"type": "Point", "coordinates": [68.99827802632765, -15.456414826293669]}}, {"type": "Feature", "properties": {"norad_id": 53093, "name": "COSMOS 2251 DEB", "group": "cosmos-2251-debris", "lat": 35.249023514495846, "lon": -43.4739657454535, "alt_km": 736.4913882777737, "timestamp": "2025-12-10T21:43:22.489829+00:00", "meta": {"OBJECT_NAME": "COSMOS 2251 DEB", "OBJECT_ID": "1993-036BYP", "EPOCH": "2025-12-10T08:13:53.569632", "MEAN_MOTION": 14.41858393, "ECCENTRICITY": 0.00190258, "INCLINATION": 74.0368, "RA_OF_ASC_NODE": 305.8968, "ARG_OF_PERICENTER": 23.5315, "MEAN_ANOMALY": 336.6707, "EPHEMERIS_TYPE": 0, "CLASSIFICATION_TYPE": "U", "NORAD_CAT_ID": 53093, "ELEMENT_SET_NO": 999, "REV_AT_EPOCH": 17691, "BSTAR": 0.0015107388, "MEAN_MOTION_DOT": 4.929e-05, "MEAN_MOTION_DDOT": 0}, "tle": {"line1": "1 53093U 93036BYP 25344.34298113  .00004929  00000+0  15107-2 0  9999", "line2": "2 53093  74.0368 305.8968 0019025  23.5315 336.6707 14.41858393176917"}}, "geometry": {"type": "Point", "coordinates": [-43.4739657454535, 35.249023514495846]}}]}